{"type": "FeatureCollection", "features": [ {"type": "Feature", "properties": {"norad_id": 45527, "name": "FENGYUN 1C DEB", "group": "fengyun-1c-debris", "lat": 26.813069673373843, "lon": -108.82818201067604, "alt_km": 775.7409680500868, "timestamp": "2025-12-26T03:50:12.384059+00:00", "meta": {"OBJECT_NAME": "FENGYUN 1C DEB", "OBJECT_ID": "1999-025EYS", "EPOCH": "2025-12-25T15:19:13.641312", "MEAN_MOTION": 14.24593964, "ECCENTRICITY": 0.005583, "INCLINATION": 98.7388, "RA_OF_ASC_NODE": 66.1943, "ARG_OF_PERICENTER": 189.0676, "MEAN_ANOMALY": 170.95, "EPHEMERIS_TYPE": 0, "CLASSIFICATION_TYPE": "U", "NORAD_CAT_ID": 45527, "ELEMENT_SET_NO": 999, "REV_AT_EPOCH": 39763, "BSTAR": 0.001611, "MEAN_MOTION_DOT": 3.76e-05, "MEAN_MOTION_DDOT": 0}, "tle": {"line1": "1 45527U 99025EYS 25359.63835233  .00003760  00000+0  16110-2 0  9991", "line2": "2 45527  98.7388  66.1943 0055830 189.0676 170.9500 14.24593964397632"}}, "geometry": {"type": "Point", "coordinates": [-108.82818201067604, 26.813069673373843]}}, {"type": "Feature", "properties": {"norad_id": 46440, "name": "FENGYUN 1C DEB", "group": "fengyun-1c-debris", "lat": -54.88182167097522, "lon": 39.19233801193573, "alt_km": 943.2727025515605, "timestamp": "2025-12-26T03:50:12.384069+00:00", "meta": {"OBJECT_NAME": "FENGYUN 1C DEB", "OBJECT_ID": "1999-025EYV", "EPOCH": "2025-12-20T20:25:34.567392", "MEAN_MOTION": 14.2032994, "ECCENTRICITY": 0.01764773, "INCLINATION": 98.5919, "RA_OF_ASC_NODE": 21.6185, "ARG_OF_PERICENTER": 111.8963, "MEAN_ANOMALY": 63.8759, "EPHEMERIS_TYPE": 0, "CLASSIFICATION_TYPE": "U", "NORAD_CAT_ID": 46440, "ELEMENT_SET_NO": 999, "REV_AT_EPOCH": 62484, "BSTAR": 0.00020023593, "MEAN_MOTION_DOT": 4.59e-06, "MEAN_MOTION_DDOT": 0}, "tle": {"line1": "1 46440U 99025EYV 25354.85109453  .00000459  00000+0  20024-3 0  9995", "line2": "2 46440  98.5919  21.6185 0176477 111.8963  63.8759 14.20329940624841"}}, "geometry": {"type": "Point", "coordinates": [39.19233801193573, -54.88182167097522]}}, {"type": "Feature", "properties": {"norad_id": 46443, "name": "FENGYUN 1C DEB", "group": "fengyun-1c-debris", "lat": 46.649694292862314, "lon": 57.48433929821001, "alt_km": 850.979270956258, "timestamp": "2025-12-26T03:50:12.384079+00:00", "meta": {"OBJECT_NAME": "FENGYUN 1C DEB", "OBJECT_ID": "1999-025EYY", "EPOCH": "2025-12-24T09:21:30.254400", "MEAN_MOTION": 14.10907038, "ECCENTRICITY": 0.00968142, "INCLINATION": 99.2138, "RA_OF_ASC_NODE": 65.5704, "ARG_OF_PERICENTER": 322.8051, "MEAN_ANOMALY": 98.5654, "EPHEMERIS_TYPE": 0, "CLASSIFICATION_TYPE": "U", "NORAD_CAT_ID": 46443, "ELEMENT_SET_NO": 999, "REV_AT_EPOCH": 59760, "BSTAR": 0.0016906012, "MEAN_MOTION_DOT": 3.122e-05, "MEAN_MOTION_DDOT": 0}, "tle": {"line1": "1 46443U 99025EYY 25358.38993350  .00003122  00000+0  16906-2 0  9990", "line2": "2 46443  99.2138  65.5704 0096814 322.8051  98.5654 14.10907038597608"}}, "geometry": {"type": "Point", "coordinates": [57.48433929821001, 46.649694292862314]}}, {"type": "Feature", "properties": {"norad_id": 46444, "name": "FENGYUN 1C DEB", "group": "fengyun-1c-debris", "lat": 26.498055169930335, "lon": -173.91931351903375, "alt_km": 754.334942669916, "timestamp": "2025-12-26T03:50:12.384089+00:00", "meta": {"OBJECT_NAME": "FENGYUN 1C DEB", "OBJECT_ID": "1999-025EYZ", "EPOCH": "2025-12-18T06:45:06.153408", "MEAN_MOTION": 14.27169033, "ECCENTRICITY": 0.00846398, "INCLINATION": 98.5129, "RA_OF_ASC_NODE": 354.1289, "ARG_OF_PERICENTER": 134.7606, "MEAN_ANOMALY": 242.101, "EPHEMERIS_TYPE": 0, "CLASSIFICATION_TYPE": "U", "NORAD_CAT_ID": 46444, "ELEMENT_SET_NO": 999, "REV_AT_EPOCH": 62661, "BSTAR": 0.00039999748, "MEAN_MOTION_DOT": 9.72e-06, "MEAN_MOTION_DDOT": 0}, "tle": {"line1": "1 46444U 99025EYZ 25352.28132122  .00000972  00000+0  40000-3 0  9999", "line2": "2 46444  98.5129 354.1289 0084639 134.7606 242.1010 14.27169033626614"}}, "geometry": {"type": "Point", "coordinates": [-173.91931351903375, 26.498055169930335]}}, {"type": "Feature", "properties": {"norad_id": 46449, "name": "FENGYUN 1C DEB", "group": "fengyun-1c-debris", "lat": -78.16221406748393, "lon": 80.77514831823733, "alt_km": 732.2158859801739, "timestamp": "2025-12-26T03:50:12.384099+00:00", "meta": {"OBJECT_NAME": "FENGYUN 1C DEB", "OBJECT_ID": "1999-025EZE", "EPOCH": "2025-11-27T19:57:02.428704", "MEAN_MOTION": 14.19021773, "ECCENTRICITY": 0.02029501, "INCLINATION": 98.6463, "RA_OF_ASC_NODE": 6.5721, "ARG_OF_PERICENTER": 314.0231, "MEAN_ANOMALY": 44.4375, "EPHEMERIS_TYPE": 0, "CLASSIFICATION_TYPE": "U", "NORAD_CAT_ID": 46449, "ELEMENT_SET_NO": 999, "REV_AT_EPOCH": 57425, "BSTAR": 0.00050383916, "MEAN_MOTION_DOT": 1.244e-05, "MEAN_MOTION_DDOT": 0}, "tle": {"line1": "1 46449U 99025EZE 25331.83127811  .00001244  00000+0  50384-3 0  9990", "line2": "2 46449  98.6463   6.5721 0202950 314.0231  44.4375 14.19021773574253"}}, "geometry": {"type": "Point", "coordinates": [80.77514831823733, -78.16221406748393]}}, {"type": "Feature", "properties": {"norad_id": 46450, "name": "FENGYUN 1C DEB", "group": "fengyun-1c-debris", "lat": 50.421464445868295, "lon": -154.56392253503802, "alt_km": 758.7889676635832, "timestamp": "2025-12-26T03:50:12.384110+00:00", "meta": {"OBJECT_NAME": "FENGYUN 1C DEB", "OBJECT_ID": "1999-025EZF", "EPOCH": "2025-12-22T20:54:28.404576", "MEAN_MOTION": 14.0364475, "ECCENTRICITY": 0.018354, "INCLINATION": 98.08, "RA_OF_ASC_NODE": 212.4054, "ARG_OF_PERICENTER": 32.107, "MEAN_ANOMALY": 329.1123, "EPHEMERIS_TYPE": 0, "CLASSIFICATION_TYPE": "U", "NORAD_CAT_ID": 46450, "ELEMENT_SET_NO": 999, "REV_AT_EPOCH": 61261, "BSTAR": 0.0021946, "MEAN_MOTION_DOT": 3.968e-05, "MEAN_MOTION_DDOT": 0}, "tle": {"line1": "1 46450U 99025EZF 25356.87116209  .00003968  00000+0  21946-2 0  9998", "line2": "2 46450  98.0800 212.4054 0183540  32.1070 329.1123 14.03644750612619"}}, "geometry": {"type": "Point", "coordinates": [-154.56392253503802, 50.421464445868295]}}, {"type": "Feature", "properties": {"norad_id": 46451, "name": "FENGYUN 1C DEB", "group": "fengyun-1c-debris", "lat": 67.12471289737199, "lon": -141.80721216594185, "alt_km": 715.7747154095041, "timestamp": "2025-12-26T03:50:12.384120+00:00", "meta": {"OBJECT_NAME": "FENGYUN 1C DEB", "OBJECT_ID": "1999-025EZG", "EPOCH": "2025-12-25T00:24:40.589280", "MEAN_MOTION": 14.2051902, "ECCENTRICITY": 0.01711251, "INCLINATION": 98.1525, "RA_OF_ASC_NODE": 17.276, "ARG_OF_PERICENTER": 150.099, "MEAN_ANOMALY": 241.9836, "EPHEMERIS_TYPE": 0, "CLASSIFICATION_TYPE": "U", "NORAD_CAT_ID": 46451, "ELEMENT_SET_NO": 999, "REV_AT_EPOCH": 57181, "BSTAR": 0.0023483511, "MEAN_MOTION_DOT": 5.811e-05, "MEAN_MOTION_DDOT": 0}, "tle": {"line1": "1 46451U 99025EZG 25359.01713645  .00005811  00000+0  23484-2 0  9993", "line2": "2 46451  98.1525  17.2760 0171125 150.0990 241.9836 14.20519020571815"}}, "geometry": {"type": "Point", "coordinates": [-141.80721216594185, 67.12471289737199]}}, {"type": "Feature", "properties": {"norad_id": 46468, "name": "FENGYUN 1C DEB", "group": "fengyun-1c-debris", "lat": -20.926326427706677, "lon": -95.33246195764322, "alt_km": 781.1121904619195, "timestamp": "2025-12-26T03:50:12.384130+00:00", "meta": {"OBJECT_NAME": "FENGYUN 1C DEB", "OBJECT_ID": "1999-025EZK", "EPOCH": "2025-12-22T17:02:48.613632", "MEAN_MOTION": 14.2480408, "ECCENTRICITY": 0.00465889, "INCLINATION": 98.8843, "RA_OF_ASC_NODE": 84.6069, "ARG_OF_PERICENTER": 202.7167, "MEAN_ANOMALY": 314.1415, "EPHEMERIS_TYPE": 0, "CLASSIFICATION_TYPE": "U", "NORAD_CAT_ID": 46468, "ELEMENT_SET_NO": 999, "REV_AT_EPOCH": 73958, "BSTAR": 0.0018930281, "MEAN_MOTION_DOT": 4.421e-05, "MEAN_MOTION_DDOT": 0}, "tle": {"line1": "1 46468U 99025EZK 25356.71028488  .00004421  00000+0  18930-2 0  9995", "line2": "2 46468  98.8843  84.6069 0046588 202.7167 314.1415 14.24804080739581"}}, "geometry": {"type": "Point", "coordinates": [-95.33246195764322, -20.926326427706677]}}, {"type": "Feature", "properties": {"norad_id": 46986, "name": "FENGYUN 1C DEB", "group": "fengyun-1c-debris", "lat": 19.459393935950555, "lon": 20.618563236444402, "alt_km": 800.2170489063483, "timestamp": "2025-12-26T03:50:12.384140+00:00", "meta": {"OBJECT_NAME": "FENGYUN 1C DEB", "OBJECT_ID": "1999-025EZL", "EPOCH": "2025-12-23T19:19:36.010560", "MEAN_MOTION": 14.47217412, "ECCENTRICITY": 0.01051734, "INCLINATION": 98.2364, "RA_OF_ASC_NODE": 21.2604, "ARG_OF_PERICENTER": 178.1247, "MEAN_ANOMALY": 182.0361, "EPHEMERIS_TYPE": 0, "CLASSIFICATION_TYPE": "U", "NORAD_CAT_ID": 46986, "ELEMENT_SET_NO": 999, "REV_AT_EPOCH": 63560, "BSTAR": 0.00037494838, "MEAN_MOTION_DOT": 1.421e-05, "MEAN_MOTION_DDOT": 0}, "tle": {"line1": "1 46986U 99025EZL 25357.80527790  .00001421  00000+0  37495-3 0  9996", "line2": "2 46986  98.2364  21.2604 0105173 178.1247 182.0361 14.47217412635603"}}, "geometry": {"type": "Point", "coordinates": [20.618563236444402, 19.459393935950555]}}, {"type": "Feature", "properties": {"norad_id": 46989, "name": "FENGYUN 1C DEB", "group": "fengyun-1c-debris", "lat": 76.11598608716506, "lon": 119.32409831099832, "alt_km": 1089.7325263117282, "timestamp": "2025-12-26T03:50:12.384150+00:00", "meta": {"OBJECT_NAME": "FENGYUN 1C DEB", "OBJECT_ID": "1999-025EZP", "EPOCH": "2025-12-24T05:21:04.103424", "MEAN_MOTION": 13.7943268, "ECCENTRICITY": 0.02440893, "INCLINATION": 99.5054, "RA_OF_ASC_NODE": 160.0523, "ARG_OF_PERICENTER": 306.9712, "MEAN_ANOMALY": 237.4301, "EPHEMERIS_TYPE": 0, "CLASSIFICATION_TYPE": "U", "NORAD_CAT_ID": 46989, "ELEMENT_SET_NO": 999, "REV_AT_EPOCH": 71200, "BSTAR": 0.0046273535, "MEAN_MOTION_DOT": 5.906e-05, "MEAN_MOTION_DDOT": 0}, "tle": {"line1": "1 46989U 99025EZP 25358.22296416  .00005906  00000+0  46274-2 0  9990", "line2": "2 46989  99.5054 160.0523 0244089 306.9712 237.4301 13.79432680712005"}}, "geometry": {"type": "Point", "coordinates": [119.32409831099832, 76.11598608716506]}}]}